CCSDS_OMM_VERS = 2.0
CREATION_DATE  = 
ORIGINATOR     = 

OBJECT_NAME    = STARLINK-36639
OBJECT_ID      = 2026-022X
CENTER_NAME    = EARTH
REF_FRAME      = TEME
TIME_SYSTEM    = UTC
MEAN_ELEMENT_THEORY = SGP/SGP4

EPOCH          = 2026-02-18T04:00:01.999584
MEAN_MOTION    = 15.75242569
ECCENTRICITY   = .0001253
INCLINATION    = 97.2844
RA_OF_ASC_NODE = 82.2287
ARG_OF_PERICENTER = 96.1293
MEAN_ANOMALY   = 93.5426

EPHEMERIS_TYPE = 0
CLASSIFICATION_TYPE = U
NORAD_CAT_ID   = 67669
ELEMENT_SET_NO = 999
REV_AT_EPOCH   = 375
BSTAR          = -.1082E-2
MEAN_MOTION_DOT = -.158914E-2
MEAN_MOTION_DDOT = 0

CCSDS_OMM_VERS = 2.0
CREATION_DATE  = 
ORIGINATOR     = 

OBJECT_NAME    = STARLINK-36596
OBJECT_ID      = 2026-022Y
CENTER_NAME    = EARTH
REF_FRAME      = TEME
TIME_SYSTEM    = UTC
MEAN_ELEMENT_THEORY = SGP/SGP4

EPOCH          = 2026-02-18T04:00:01.999584
MEAN_MOTION    = 15.75182287
ECCENTRICITY   = .0001726
INCLINATION    = 97.2843
RA_OF_ASC_NODE = 82.2332
ARG_OF_PERICENTER = 111.0664
MEAN_ANOMALY   = 88.4932

EPHEMERIS_TYPE = 0
CLASSIFICATION_TYPE = U
NORAD_CAT_ID   = 67670
ELEMENT_SET_NO = 999
REV_AT_EPOCH   = 375
BSTAR          = .55754E-3
MEAN_MOTION_DOT = .83825E-3
MEAN_MOTION_DDOT = 0

CCSDS_OMM_VERS = 2.0
CREATION_DATE  = 
ORIGINATOR     = 

OBJECT_NAME    = STARLINK-36297
OBJECT_ID      = 2026-022Z
CENTER_NAME    = EARTH
REF_FRAME      = TEME
TIME_SYSTEM    = UTC
MEAN_ELEMENT_THEORY = SGP/SGP4

EPOCH          = 2026-02-18T04:00:01.999584
MEAN_MOTION    = 15.75251226
ECCENTRICITY   = .0001198
INCLINATION    = 97.2845
RA_OF_ASC_NODE = 82.2383
ARG_OF_PERICENTER = 83.6797
MEAN_ANOMALY   = 127.9931

EPHEMERIS_TYPE = 0
CLASSIFICATION_TYPE = U
NORAD_CAT_ID   = 67671
ELEMENT_SET_NO = 999
REV_AT_EPOCH   = 375
BSTAR          = -.10425E-2
MEAN_MOTION_DOT = -.153277E-2
MEAN_MOTION_DDOT = 0

CCSDS_OMM_VERS = 2.0
CREATION_DATE  = 
ORIGINATOR     = 

OBJECT_NAME    = STARLINK-36616
OBJECT_ID      = 2026-022AA
CENTER_NAME    = EARTH
REF_FRAME      = TEME
TIME_SYSTEM    = UTC
MEAN_ELEMENT_THEORY = SGP/SGP4

EPOCH          = 2026-02-18T04:00:01.999584
MEAN_MOTION    = 15.75233067
ECCENTRICITY   = .000142
INCLINATION    = 97.2846
RA_OF_ASC_NODE = 82.2343
ARG_OF_PERICENTER = 72.6011
MEAN_ANOMALY   = 131.0775

EPHEMERIS_TYPE = 0
CLASSIFICATION_TYPE = U
NORAD_CAT_ID   = 67672
ELEMENT_SET_NO = 999
REV_AT_EPOCH   = 375
BSTAR          = -.89712E-3
MEAN_MOTION_DOT = -.132141E-2
MEAN_MOTION_DDOT = 0

CCSDS_OMM_VERS = 2.0
CREATION_DATE  = 
ORIGINATOR     = 

OBJECT_NAME    = COSMOS 2600
OBJECT_ID      = 2026-023A
CENTER_NAME    = EARTH
REF_FRAME      = TEME
TIME_SYSTEM    = UTC
MEAN_ELEMENT_THEORY = SGP/SGP4

EPOCH          = 2026-02-18T04:22:19.430112
MEAN_MOTION    = 15.82787264
ECCENTRICITY   = .000143
INCLINATION    = 96.6478
RA_OF_ASC_NODE = 125.4336
ARG_OF_PERICENTER = 55.6928
MEAN_ANOMALY   = 304.4478

EPHEMERIS_TYPE = 0
CLASSIFICATION_TYPE = U
NORAD_CAT_ID   = 67674
ELEMENT_SET_NO = 999
REV_AT_EPOCH   = 196
BSTAR          = .31922E-3
MEAN_MOTION_DOT = .67339E-3
MEAN_MOTION_DDOT = 0

CCSDS_OMM_VERS = 2.0
CREATION_DATE  = 
ORIGINATOR     = 

OBJECT_NAME    = 2026-023B
OBJECT_ID      = 2026-023B
CENTER_NAME    = EARTH
REF_FRAME      = TEME
TIME_SYSTEM    = UTC
MEAN_ELEMENT_THEORY = SGP/SGP4

EPOCH          = 2026-02-18T04:52:24.278592
MEAN_MOTION    = 15.22492326
ECCENTRICITY   = .0017911
INCLINATION    = 96.6398
RA_OF_ASC_NODE = 124.4103
ARG_OF_PERICENTER = 199.5938
MEAN_ANOMALY   = 160.4615

EPHEMERIS_TYPE = 0
CLASSIFICATION_TYPE = U
NORAD_CAT_ID   = 67675
ELEMENT_SET_NO = 999
REV_AT_EPOCH   = 189
BSTAR          = .47652E-3
MEAN_MOTION_DOT = .11034E-3
MEAN_MOTION_DDOT = 0

CCSDS_OMM_VERS = 2.0
CREATION_DATE  = 
ORIGINATOR     = 

OBJECT_NAME    = 2026-023C
OBJECT_ID      = 2026-023C
CENTER_NAME    = EARTH
REF_FRAME      = TEME
TIME_SYSTEM    = UTC
MEAN_ELEMENT_THEORY = SGP/SGP4

EPOCH          = 2026-02-18T04:51:42.440256
MEAN_MOTION    = 15.22566209
ECCENTRICITY   = .0019135
INCLINATION    = 96.6433
RA_OF_ASC_NODE = 124.4248
ARG_OF_PERICENTER = 189.3367
MEAN_ANOMALY   = 170.7519

EPHEMERIS_TYPE = 0
CLASSIFICATION_TYPE = U
NORAD_CAT_ID   = 67676
ELEMENT_SET_NO = 999
REV_AT_EPOCH   = 205
BSTAR          = .50823E-3
MEAN_MOTION_DOT = .11806E-3
MEAN_MOTION_DDOT = 0

CCSDS_OMM_VERS = 2.0
CREATION_DATE  = 
ORIGINATOR     = 

OBJECT_NAME    = 2026-023D
OBJECT_ID      = 2026-023D
CENTER_NAME    = EARTH
REF_FRAME      = TEME
TIME_SYSTEM    = UTC
MEAN_ELEMENT_THEORY = SGP/SGP4

EPOCH          = 2026-02-18T04:53:04.987680
MEAN_MOTION    = 15.22426841
ECCENTRICITY   = .0019254
INCLINATION    = 96.6464
RA_OF_ASC_NODE = 124.4091
ARG_OF_PERICENTER = 194.5461
MEAN_ANOMALY   = 165.5226

EPHEMERIS_TYPE = 0
CLASSIFICATION_TYPE = U
NORAD_CAT_ID   = 67677
ELEMENT_SET_NO = 999
REV_AT_EPOCH   = 188
BSTAR          = .44592E-3
MEAN_MOTION_DOT = .10308E-3
MEAN_MOTION_DDOT = 0

CCSDS_OMM_VERS = 2.0
CREATION_DATE  = 
ORIGINATOR     = 

OBJECT_NAME    = 2026-023E
OBJECT_ID      = 2026-023E
CENTER_NAME    = EARTH
REF_FRAME      = TEME
TIME_SYSTEM    = UTC
MEAN_ELEMENT_THEORY = SGP/SGP4

EPOCH          = 2026-02-18T04:52:02.205984
MEAN_MOTION    = 15.22542245
ECCENTRICITY   = .0019086
INCLINATION    = 96.6357
RA_OF_ASC_NODE = 124.4086
ARG_OF_PERICENTER = 193.9127
MEAN_ANOMALY   = 166.1588

EPHEMERIS_TYPE = 0
CLASSIFICATION_TYPE = U
NORAD_CAT_ID   = 67678
ELEMENT_SET_NO = 999
REV_AT_EPOCH   = 188
BSTAR          = .54984E-3
MEAN_MOTION_DOT = .1277E-3
MEAN_MOTION_DDOT = 0

CCSDS_OMM_VERS = 2.0
CREATION_DATE  = 
ORIGINATOR     = 

OBJECT_NAME    = 2026-023F
OBJECT_ID      = 2026-023F
CENTER_NAME    = EARTH
REF_FRAME      = TEME
TIME_SYSTEM    = UTC
MEAN_ELEMENT_THEORY = SGP/SGP4

EPOCH          = 2026-02-18T04:50:24.323424
MEAN_MOTION    = 15.22680963
ECCENTRICITY   = .0021019
INCLINATION    = 96.6365
RA_OF_ASC_NODE = 126.9060
ARG_OF_PERICENTER = 188.6972
MEAN_ANOMALY   = 171.3906

EPHEMERIS_TYPE = 0
CLASSIFICATION_TYPE = U
NORAD_CAT_ID   = 67679
ELEMENT_SET_NO = 999
REV_AT_EPOCH   = 187
BSTAR          = .63349E-3
MEAN_MOTION_DOT = .14802E-3
MEAN_MOTION_DDOT = 0

CCSDS_OMM_VERS = 2.0
CREATION_DATE  = 
ORIGINATOR     = 

OBJECT_NAME    = 2026-023G
OBJECT_ID      = 2026-023G
CENTER_NAME    = EARTH
REF_FRAME      = TEME
TIME_SYSTEM    = UTC
MEAN_ELEMENT_THEORY = SGP/SGP4

EPOCH          = 2026-02-18T04:50:49.877088
MEAN_MOTION    = 15.22640167
ECCENTRICITY   = .0022629
INCLINATION    = 96.6292
RA_OF_ASC_NODE = 126.9022
ARG_OF_PERICENTER = 185.1859
MEAN_ANOMALY   = 174.9149

EPHEMERIS_TYPE = 0
CLASSIFICATION_TYPE = U
NORAD_CAT_ID   = 67680
ELEMENT_SET_NO = 999
REV_AT_EPOCH   = 187
BSTAR          = .50524E-3
MEAN_MOTION_DOT = .11786E-3
MEAN_MOTION_DDOT = 0

CCSDS_OMM_VERS = 2.0
CREATION_DATE  = 
ORIGINATOR     = 

OBJECT_NAME    = 2026-023H
OBJECT_ID      = 2026-023H
CENTER_NAME    = EARTH
REF_FRAME      = TEME
TIME_SYSTEM    = UTC
MEAN_ELEMENT_THEORY = SGP/SGP4

EPOCH          = 2026-02-18T01:41:17.154816
MEAN_MOTION    = 15.22627375
ECCENTRICITY   = .0022588
INCLINATION    = 96.6435
RA_OF_ASC_NODE = 126.7896
ARG_OF_PERICENTER = 185.3318
MEAN_ANOMALY   = 174.7684

EPHEMERIS_TYPE = 0
CLASSIFICATION_TYPE = U
NORAD_CAT_ID   = 67681
ELEMENT_SET_NO = 999
REV_AT_EPOCH   = 185
BSTAR          = .32619E-5
MEAN_MOTION_DOT = .18E-6
MEAN_MOTION_DDOT = 0

