STARLINK-36639          
1 67669U 26022X   26049.16668981 -.00158914  00000+0 -10820-2 0  9994
2 67669  97.2844  82.2287 0001253  96.1293  93.5426 15.75242569  3750
STARLINK-36596          
1 67670U 26022Y   26049.16668981  .00083825  00000+0  55754-3 0  9998
2 67670  97.2843  82.2332 0001726 111.0664  88.4932 15.75182287  3751
STARLINK-36297          
1 67671U 26022Z   26049.16668981 -.00153277  00000+0 -10425-2 0  9995
2 67671  97.2845  82.2383 0001198  83.6797 127.9931 15.75251226  3752
STARLINK-36616          
1 67672U 26022AA  26049.16668981 -.00132141  00000+0 -89712-3 0  9999
2 67672  97.2846  82.2343 0001420  72.6011 131.0775 15.75233067  3750
COSMOS 2600             
1 67674U 26023A   26049.18216933  .00067339  00000+0  31922-3 0  9994
2 67674  96.6478 125.4336 0001430  55.6928 304.4478 15.82787264  1965
2026-023B               
1 67675U 26023B   26049.20305878  .00011034  00000+0  47652-3 0  9993
2 67675  96.6398 124.4103 0017911 199.5938 160.4615 15.22492326  1899
2026-023C               
1 67676U 26023C   26049.20257454  .00011806  00000+0  50823-3 0  9991
2 67676  96.6433 124.4248 0019135 189.3367 170.7519 15.22566209  2051
2026-023D               
1 67677U 26023D   26049.20352995  .00010308  00000+0  44592-3 0  9990
2 67677  96.6464 124.4091 0019254 194.5461 165.5226 15.22426841  1881
2026-023E               
1 67678U 26023E   26049.20280331  .00012770  00000+0  54984-3 0  9996
2 67678  96.6357 124.4086 0019086 193.9127 166.1588 15.22542245  1887
2026-023F               
1 67679U 26023F   26049.20167041  .00014802  00000+0  63349-3 0  9992
2 67679  96.6365 126.9060 0021019 188.6972 171.3906 15.22680963  1875
2026-023G               
1 67680U 26023G   26049.20196617  .00011786  00000+0  50524-3 0  9994
2 67680  96.6292 126.9022 0022629 185.1859 174.9149 15.22640167  1878
2026-023H               
1 67681U 26023H   26049.07033744  .00000018  00000+0  32619-5 0  9994
2 67681  96.6435 126.7896 0022588 185.3318 174.7684 15.22627375  1857
